H1 CPF 01  gfz 2021 02 02 01  5331 tandemx   
H2 1003001  6202 36605    2021 02 02 00 59 42 2021 02 07 00 00 42   120 1 1  0 0 0
H9
10 0 59251  55422.000000  0    5352564.329   4292235.529    617640.085
10 0 59251  55542.000000  0    5351307.181   4064129.881   1511122.907
10 0 59251  55662.000000  0    5251878.174   3765844.252   2377996.036
10 0 59251  55782.000000  0    5054839.386   3404301.104   3202990.602
10 0 59251  55902.000000  0    4762605.831   2987514.298   3971581.997
10 0 59251  56022.000000  0    4379415.941   2524411.315   4670250.646
10 0 59251  56142.000000  0    3911266.929   2024640.553   5286720.805
10 0 59251  56262.000000  0    3365813.748   1498369.222   5810177.252
10 0 59251  56382.000000  0    2752235.854    956073.672   6231450.795
10 0 59251  56502.000000  0    2081076.570    408329.037   6543171.584
10 0 59251  56622.000000  0    1364058.558   -134395.818   6739891.598
10 0 59251  56742.000000  0     613876.729   -661937.554   6818176.455
10 0 59251  56862.000000  0    -156028.371  -1164628.853   6776661.328
10 0 59251  56982.000000  0    -931711.458  -1633474.999   6616072.529
10 0 59251  57102.000000  0   -1698974.491  -2060314.962   6339214.330
10 0 59251  57222.000000  0   -2443624.337  -2437962.837   5950922.121
10 0 59251  57342.000000  0   -3151734.374  -2760329.779   5457985.761
10 0 59251  57462.000000  0   -3809909.497  -3022525.759   4869038.216
10 0 59251  57582.000000  0   -4405544.425  -3220935.986   4194408.119
10 0 59251  57702.000000  0   -4927070.332  -3353271.141   3445942.204
10 0 59251  57822.000000  0   -5364185.649  -3418590.671   2636799.893
10 0 59251  57942.000000  0   -5708067.141  -3417299.438   1781222.213
10 0 59251  58062.000000  0   -5951554.556  -3351116.545    894276.640
10 0 59251  58182.000000  0   -6089303.087  -3223015.664     -8415.128
10 0 59251  58302.000000  0   -6117900.782  -3037139.730   -910960.311
10 0 59251  58422.000000  0   -6035947.234  -2798691.500  -1797484.979
10 0 59251  58542.000000  0   -5844089.506  -2513802.131  -2652422.044
10 0 59251  58662.000000  0   -5545017.316  -2189383.013  -3460789.852
10 0 59251  58782.000000  0   -5143417.901  -1832964.403  -4208457.419
10 0 59251  58902.000000  0   -4645892.366  -1452524.982  -4882390.142
10 0 59251  59022.000000  0   -4060836.399  -1056316.673  -5470872.840
10 0 59251  59142.000000  0   -3398287.712   -652688.377  -5963705.471
10 0 59251  59262.000000  0   -2669745.502   -249913.277  -6352368.963
10 0 59251  59382.000000  0   -1887966.042    143976.838  -6630160.734
10 0 59251  59502.000000  0   -1066737.455    521346.696  -6792298.706
10 0 59251  59622.000000  0    -220639.566    875100.618  -6835994.214
10 0 59251  59742.000000  0     635208.906   1198812.339  -6760493.969
10 0 59251  59862.000000  0    1485412.806   1486837.754  -6567093.483
10 0 59251  59982.000000  0    2314572.192   1734412.152  -6259118.613
10 0 59251  60102.000000  0    3107556.341   1937728.555  -5841874.235
10 0 59251  60222.000000  0    3849776.284   2093995.827  -5322561.104
10 0 59251  60342.000000  0    4527452.222   2201476.655  -4710163.548
10 0 59251  60462.000000  0    5127873.475   2259504.763  -4015305.410
10 0 59251  60582.000000  0    5639643.251   2268479.828  -3250075.031
10 0 59251  60702.000000  0    6052903.621   2229840.361  -2427823.173
10 0 59251  60822.000000  0    6359537.254   2146015.046  -1562934.236
10 0 59251  60942.000000  0    6553337.205   2020352.661   -670573.945
10 0 59251  61062.000000  0    6630142.123   1857031.797    233580.312
10 0 59251  61182.000000  0    6587929.880   1660952.146   1133622.434
10 0 59251  61302.000000  0    6426870.012   1437611.454   2013703.687
10 0 59251  61422.000000  0    6149333.437   1192969.573   2858321.949
10 0 59251  61542.000000  0    5759855.393    933303.418   3652602.979
10 0 59251  61662.000000  0    5265055.292    665057.343   4382569.195
10 0 59251  61782.000000  0    4673514.967    394692.386   5035387.876
10 0 59251  61902.000000  0    3995621.095    128538.827   5599597.714
10 0 59251  62022.000000  0    3243371.919   -127346.265   6065307.967
10 0 59251  62142.000000  0    2430156.140   -367310.533   6424365.625
10 0 59251  62262.000000  0    1570509.646   -586226.204   6670492.408
10 0 59251  62382.000000  0     679851.953   -779596.375   6799389.966
10 0 59251  62502.000000  0    -225793.201   -943645.338   6808809.818
10 0 59251  62622.000000  0   -1130085.950  -1075391.354   6698588.994
10 0 59251  62742.000000  0   -2016663.996  -1172700.945   6470651.870
10 0 59251  62862.000000  0   -2869436.797  -1234322.996   6128977.995
10 0 59251  62982.000000  0   -3672877.084  -1259902.863   5679538.801
10 0 59251  63102.000000  0   -4412307.730  -1249977.410   5130200.406
10 0 59251  63222.000000  0   -5074176.160  -1205950.425   4490591.625
10 0 59251  63342.000000  0   -5646310.655  -1130047.741   3771939.146
10 0 59251  63462.000000  0   -6118152.272  -1025253.322   2986872.670
10 0 59251  63582.000000  0   -6480958.745   -895227.880   2149204.724
10 0 59251  63702.000000  0   -6727977.829   -744211.741   1273685.808
10 0 59251  63822.000000  0   -6854580.970   -576914.139    375737.735
10 0 59251  63942.000000  0   -6858353.968   -398391.654   -528826.169
10 0 59251  64062.000000  0   -6739143.567   -213918.780  -1424088.681
10 0 59251  64182.000000  0   -6499057.228    -28854.102  -2294317.128
10 0 59251  64302.000000  0   -6142419.847    151493.697  -3124245.734
10 0 59251  64422.000000  0   -5675686.011    321998.078  -3899349.562
10 0 59251  64542.000000  0   -5107309.631    477841.000  -4606099.675
10 0 59251  64662.000000  0   -4447577.458    614629.976  -5232196.058
10 0 59251  64782.000000  0   -3708410.610    728503.950  -5766774.333
10 0 59251  64902.000000  0   -2903139.584    816224.626  -6200584.485
10 0 59251  65022.000000  0   -2046258.099    875252.139  -6526138.493
10 0 59251  65142.000000  0   -1153161.013    903804.782  -6737828.728
10 0 59251  65262.000000  0    -239869.366    900901.313  -6832013.630
10 0 59251  65382.000000  0     677250.283    866384.970  -6807072.337
10 0 59251  65502.000000  0    1581770.967    800929.156  -6663431.835
10 0 59251  65622.000000  0    2457494.061    706024.891  -6403561.450
10 0 59251  65742.000000  0    3288733.751    583950.258  -6031934.746
10 0 59251  65862.000000  0    4060594.351    437721.941  -5554959.728
10 0 59251  65982.000000  0    4759235.953    271028.908  -4980879.162
10 0 59251  66102.000000  0    5372126.566     88150.671  -4319640.249
10 0 59251  66222.000000  0    5888274.644   -106139.963  -3582732.341
10 0 59251  66342.000000  0    6298435.894   -306687.365  -2782995.963
10 0 59251  66462.000000  0    6595291.682   -508074.901  -1934405.385
10 0 59251  66582.000000  0    6773592.877   -704755.154  -1051825.575
10 0 59251  66702.000000  0    6830264.063   -891185.089   -150749.603
10 0 59251  66822.000000  0    6764466.027  -1061963.455    752978.340
10 0 59251  66942.000000  0    6577613.517  -1211966.845   1643449.480
10 0 59251  67062.000000  0    6273348.238  -1336481.025   2504979.377
10 0 59251  67182.000000  0    5857465.121  -1431322.982   3322394.063
10 0 59251  67302.000000  0    5337795.935  -1492951.328   4081303.734
10 0 59251  67422.000000  0    4724053.379  -1518563.114   4768360.586
10 0 59251  67542.000000  0    4027639.817  -1506172.740   5371494.732
10 0 59251  67662.000000  0    3261426.390  -1454672.128   5880125.300
10 0 59251  67782.000000  0    2439505.971  -1363871.842   6285342.237
10 0 59251  67902.000000  0    1576927.954  -1234521.934   6580056.497
10 0 59251  68022.000000  0     689418.266  -1068312.327   6759118.879
10 0 59251  68142.000000  0    -206910.096   -867851.654   6819404.174
10 0 59251  68262.000000  0   -1095849.491   -636626.139   6759860.928
10 0 59251  68382.000000  0   -1961389.240   -378939.111   6581528.226
10 0 59251  68502.000000  0   -2788002.525    -99831.356   6287518.744
10 0 59251  68622.000000  0   -3560924.840    195016.139   5882968.951
10 0 59251  68742.000000  0   -4266420.569    499395.425   5374955.430
10 0 59251  68862.000000  0   -4892032.364    806699.078   4772376.921
10 0 59251  68982.000000  0   -5426808.763   1110059.814   4085804.048
10 0 59251  69102.000000  0   -5861504.449   1402499.599   3327297.004
10 0 59251  69222.000000  0   -6188748.935   1677084.866   2510195.571
10 0 59251  69342.000000  0   -6403180.644   1927084.234   1648883.610
10 0 59251  69462.000000  0   -6501542.817   2146125.284    758531.873
10 0 59251  69582.000000  0   -6482736.906   2328346.510   -145176.966
10 0 59251  69702.000000  0   -6347831.786   2468539.261  -1046333.361
10 0 59251  69822.000000  0   -6100029.282   2562276.883  -1929089.690
10 0 59251  69942.000000  0   -5744587.492   2606028.393  -2777947.256
10 0 59251  70062.000000  0   -5288701.930   2597252.896  -3578035.171
10 0 59251  70182.000000  0   -4741349.709   2534471.910  -4315373.150
10 0 59251  70302.000000  0   -4113102.050   2417319.255  -4977114.086
10 0 59251  70422.000000  0   -3415909.687   2246567.668  -5551761.614
10 0 59251  70542.000000  0   -2662868.466   2024132.494  -6029360.198
10 0 59251  70662.000000  0   -1867969.136   1753052.352  -6401657.834
10 0 59251  70782.000000  0   -1045834.643   1437446.796  -6662236.734
10 0 59251  70902.000000  0    -211453.734   1082452.833  -6806612.327
10 0 59251  71022.000000  0     620086.644    694141.696  -6832301.373
10 0 59251  71142.000000  0    1433866.782    279417.351  -6738861.808
10 0 59251  71262.000000  0    2215397.040   -154103.808  -6527899.822
10 0 59251  71382.000000  0    2950869.654   -598228.933  -6203044.824
10 0 59251  71502.000000  0    3627399.698  -1044339.056  -5769893.752
10 0 59251  71622.000000  0    4233249.038  -1483551.160  -5235923.871
10 0 59251  71742.000000  0    4758033.286  -1906891.442  -4610376.181
10 0 59251  71862.000000  0    5192905.998  -2305476.182  -3904106.350
99
